start=new Date('2022-08-28T00:00:00.000Z').valueOf();
sats=[{"EPOCH":"2022-08-27T22:00:00.999936","TLE_LINE2":"2 52660  53.2148 184.1314 0002187  61.1017 242.3846 15.08845084  1306","EPHEMERIS_TYPE":"0","FILE":"3548882","REV_AT_EPOCH":"130","NORAD_CAT_ID":"52660","ELEMENT_SET_NO":"999","LAUNCH_DATE":"2022-05-18","MEAN_ELEMENT_THEORY":"SGP4","SITE":"AFETR","SEMIMAJOR_AXIS":"6917.865","TIME_SYSTEM":"UTC","CLASSIFICATION_TYPE":"U","GP_ID":"211138293","OBJECT_TYPE":"PAYLOAD","RCS_SIZE":"LARGE","APOAPSIS":"541.243","MEAN_MOTION_DOT":"-0.00005736","DECAY_DATE":null,"ECCENTRICITY":"0.00021870","RA_OF_ASC_NODE":"184.1314","MEAN_MOTION":"15.08845084","COUNTRY_CODE":"US","MEAN_MOTION_DDOT":"0.0000000000000","PERIOD":"95.437","ARG_OF_PERICENTER":"61.1017","OBJECT_ID":"2022-053E","INCLINATION":"53.2148","REF_FRAME":"TEME","MEAN_ANOMALY":"242.3846","PERIAPSIS":"538.217","CENTER_NAME":"EARTH","BSTAR":"-0.00034252000000","TLE_LINE1":"1 52660U 22053E   22239.91667824 -.00005736  00000-0 -34252-3 0  9994","OBJECT_NAME":"STARLINK-4081"},{"EPOCH":"2022-08-27T22:00:00.999936","TLE_LINE2":"2 52661  53.2152 184.1336 0001910  63.8385 259.6422 15.08863056  1306","FILE":"3548882","EPHEMERIS_TYPE":"0","REV_AT_EPOCH":"130","NORAD_CAT_ID":"52661","ELEMENT_SET_NO":"999","LAUNCH_DATE":"2022-05-18","MEAN_ELEMENT_THEORY":"SGP4","SITE":"AFETR","TIME_SYSTEM":"UTC","SEMIMAJOR_AXIS":"6917.810","CLASSIFICATION_TYPE":"U","GP_ID":"211138849","OBJECT_TYPE":"PAYLOAD","RCS_SIZE":"LARGE","APOAPSIS":"540.996","MEAN_MOTION_DOT":"-0.00017183","DECAY_DATE":null,"ECCENTRICITY":"0.00019100","RA_OF_ASC_NODE":"184.1336","MEAN_MOTION":"15.08863056","MEAN_MOTION_DDOT":"0.0000000000000","COUNTRY_CODE":"US","PERIOD":"95.436","OBJECT_ID":"2022-053F","ARG_OF_PERICENTER":"63.8385","INCLINATION":"53.2152","REF_FRAME":"TEME","PERIAPSIS":"538.354","MEAN_ANOMALY":"259.6422","CENTER_NAME":"EARTH","BSTAR":"-0.00106340000000","TLE_LINE1":"1 52661U 22053F   22239.91667824 -.00017183  00000-0 -10634-2 0  9991","OBJECT_NAME":"STARLINK-4042"},{"MEAN_MOTION":"15.08849176","ECCENTRICITY":"0.00024410","RA_OF_ASC_NODE":"184.1448","APOAPSIS":"541.406","MEAN_MOTION_DOT":"-0.00007009","DECAY_DATE":null,"CLASSIFICATION_TYPE":"U","GP_ID":"211139102","RCS_SIZE":"LARGE","OBJECT_TYPE":"PAYLOAD","MEAN_ELEMENT_THEORY":"SGP4","SEMIMAJOR_AXIS":"6917.852","SITE":"AFETR","TIME_SYSTEM":"UTC","NORAD_CAT_ID":"52662","FILE":"3548882","EPHEMERIS_TYPE":"0","REV_AT_EPOCH":"130","LAUNCH_DATE":"2022-05-18","ELEMENT_SET_NO":"999","TLE_LINE2":"2 52662  53.2173 184.1448 0002441  61.8811 301.5827 15.08849176  1309","EPOCH":"2022-08-27T22:00:00.999936","OBJECT_NAME":"STARLINK-4044","TLE_LINE1":"1 52662U 22053G   22239.91667824 -.00007009  00000-0 -42255-3 0  9993","BSTAR":"-0.00042255000000","CENTER_NAME":"EARTH","MEAN_ANOMALY":"301.5827","PERIAPSIS":"538.029","INCLINATION":"53.2173","REF_FRAME":"TEME","MEAN_MOTION_DDOT":"0.0000000000000","COUNTRY_CODE":"US","PERIOD":"95.437","ARG_OF_PERICENTER":"61.8811","OBJECT_ID":"2022-053G"},{"CENTER_NAME":"EARTH","TLE_LINE1":"1 52663U 22053H   22239.91667824 -.00006732  00000-0 -40509-3 0  9996","OBJECT_NAME":"STARLINK-4037","BSTAR":"-0.00040509000000","PERIOD":"95.437","ARG_OF_PERICENTER":"36.7302","OBJECT_ID":"2022-053H","COUNTRY_CODE":"US","MEAN_MOTION_DDOT":"0.0000000000000","MEAN_ANOMALY":"346.7467","PERIAPSIS":"538.224","REF_FRAME":"TEME","INCLINATION":"53.2168","DECAY_DATE":null,"APOAPSIS":"541.172","MEAN_MOTION_DOT":"-0.00006732","RCS_SIZE":"LARGE","OBJECT_TYPE":"PAYLOAD","GP_ID":"211138956","CLASSIFICATION_TYPE":"U","MEAN_MOTION":"15.08855525","RA_OF_ASC_NODE":"184.1404","ECCENTRICITY":"0.00021310","EPOCH":"2022-08-27T22:00:00.999936","TLE_LINE2":"2 52663  53.2168 184.1404 0002131  36.7302 346.7467 15.08855525  1304","SITE":"AFETR","TIME_SYSTEM":"UTC","SEMIMAJOR_AXIS":"6917.833","MEAN_ELEMENT_THEORY":"SGP4","ELEMENT_SET_NO":"999","LAUNCH_DATE":"2022-05-18","EPHEMERIS_TYPE":"0","FILE":"3548882","REV_AT_EPOCH":"130","NORAD_CAT_ID":"52663"},{"INCLINATION":"53.2163","REF_FRAME":"TEME","PERIAPSIS":"538.011","MEAN_ANOMALY":"283.1424","COUNTRY_CODE":"US","MEAN_MOTION_DDOT":"0.0000000000000","ARG_OF_PERICENTER":"60.3358","PERIOD":"95.437","OBJECT_ID":"2022-053J","BSTAR":"-0.00040118000000","TLE_LINE1":"1 52664U 22053J   22239.91667824 -.00006669  00000-0 -40118-3 0  9992","OBJECT_NAME":"STARLINK-4070","CENTER_NAME":"EARTH","FILE":"3548882","EPHEMERIS_TYPE":"0","REV_AT_EPOCH":"130","NORAD_CAT_ID":"52664","ELEMENT_SET_NO":"999","LAUNCH_DATE":"2022-05-18","MEAN_ELEMENT_THEORY":"SGP4","TIME_SYSTEM":"UTC","SITE":"AFETR","SEMIMAJOR_AXIS":"6917.865","EPOCH":"2022-08-27T22:00:00.999936","TLE_LINE2":"2 52664  53.2163 184.1391 0002485  60.3358 283.1424 15.08845126  1304","ECCENTRICITY":"0.00024850","RA_OF_ASC_NODE":"184.1391","MEAN_MOTION":"15.08845126","CLASSIFICATION_TYPE":"U","GP_ID":"211138704","RCS_SIZE":"LARGE","OBJECT_TYPE":"PAYLOAD","APOAPSIS":"541.449","MEAN_MOTION_DOT":"-0.00006669","DECAY_DATE":null},{"BSTAR":"-0.00047075000000","OBJECT_NAME":"STARLINK-4064","TLE_LINE1":"1 52665U 22053K   22239.91667824 -.00007777  00000-0 -47075-3 0  9993","CENTER_NAME":"EARTH","INCLINATION":"53.2190","REF_FRAME":"TEME","MEAN_ANOMALY":"25.7207","PERIAPSIS":"537.842","COUNTRY_CODE":"US","MEAN_MOTION_DDOT":"0.0000000000000","ARG_OF_PERICENTER":"57.7280","PERIOD":"95.436","OBJECT_ID":"2022-053K","ECCENTRICITY":"0.00026660","RA_OF_ASC_NODE":"184.1373","MEAN_MOTION":"15.08859208","GP_ID":"211138438","CLASSIFICATION_TYPE":"U","RCS_SIZE":"LARGE","OBJECT_TYPE":"PAYLOAD","APOAPSIS":"541.531","MEAN_MOTION_DOT":"-0.00007777","DECAY_DATE":null,"NORAD_CAT_ID":"52665","REV_AT_EPOCH":"130","FILE":"3548882","EPHEMERIS_TYPE":"0","LAUNCH_DATE":"2022-05-18","ELEMENT_SET_NO":"999","MEAN_ELEMENT_THEORY":"SGP4","SEMIMAJOR_AXIS":"6917.822","SITE":"AFETR","TIME_SYSTEM":"UTC","TLE_LINE2":"2 52665  53.2190 184.1373 0002666  57.7280  25.7207 15.08859208  1305","EPOCH":"2022-08-27T22:00:00.999936"},{"RA_OF_ASC_NODE":"184.1430","ECCENTRICITY":"0.00027720","MEAN_MOTION":"15.08866636","RCS_SIZE":"LARGE","OBJECT_TYPE":"PAYLOAD","CLASSIFICATION_TYPE":"U","GP_ID":"211139259","DECAY_DATE":null,"APOAPSIS":"541.582","MEAN_MOTION_DOT":"-0.00020644","ELEMENT_SET_NO":"999","LAUNCH_DATE":"2022-05-18","FILE":"3548882","EPHEMERIS_TYPE":"0","REV_AT_EPOCH":"130","NORAD_CAT_ID":"52666","SITE":"AFETR","TIME_SYSTEM":"UTC","SEMIMAJOR_AXIS":"6917.799","MEAN_ELEMENT_THEORY":"SGP4","EPOCH":"2022-08-27T22:00:00.999936","TLE_LINE2":"2 52666  53.2164 184.1430 0002772  58.3377 345.1205 15.08866636  1303","BSTAR":"-0.00128160000000","TLE_LINE1":"1 52666U 22053L   22239.91667824 -.00020644  00000-0 -12816-2 0  9996","OBJECT_NAME":"STARLINK-4079","CENTER_NAME":"EARTH","REF_FRAME":"TEME","INCLINATION":"53.2164","MEAN_ANOMALY":"345.1205","PERIAPSIS":"537.746","OBJECT_ID":"2022-053L","PERIOD":"95.436","ARG_OF_PERICENTER":"58.3377","MEAN_MOTION_DDOT":"0.0000000000000","COUNTRY_CODE":"US"},{"OBJECT_ID":"2022-053M","PERIOD":"95.437","ARG_OF_PERICENTER":"61.2503","MEAN_MOTION_DDOT":"0.0000000000000","COUNTRY_CODE":"US","REF_FRAME":"TEME","INCLINATION":"53.2191","MEAN_ANOMALY":"42.2413","PERIAPSIS":"537.931","CENTER_NAME":"EARTH","BSTAR":"-0.00048962000000","OBJECT_NAME":"STARLINK-4076","TLE_LINE1":"1 52667U 22053M   22239.91667824 -.00008073  00000-0 -48962-3 0  9991","TLE_LINE2":"2 52667  53.2191 184.1374 0002611  61.2503  42.2413 15.08842765  1300","EPOCH":"2022-08-27T22:00:00.999936","LAUNCH_DATE":"2022-05-18","ELEMENT_SET_NO":"999","NORAD_CAT_ID":"52667","FILE":"3548882","REV_AT_EPOCH":"130","EPHEMERIS_TYPE":"0","SITE":"AFETR","TIME_SYSTEM":"UTC","SEMIMAJOR_AXIS":"6917.872","MEAN_ELEMENT_THEORY":"SGP4","RCS_SIZE":"LARGE","OBJECT_TYPE":"PAYLOAD","GP_ID":"211138546","CLASSIFICATION_TYPE":"U","DECAY_DATE":null,"APOAPSIS":"541.543","MEAN_MOTION_DOT":"-0.00008073","RA_OF_ASC_NODE":"184.1374","ECCENTRICITY":"0.00026110","MEAN_MOTION":"15.08842765"},{"MEAN_ELEMENT_THEORY":"SGP4","SITE":"AFETR","SEMIMAJOR_AXIS":"6917.795","TIME_SYSTEM":"UTC","NORAD_CAT_ID":"52668","EPHEMERIS_TYPE":"0","FILE":"3548882","REV_AT_EPOCH":"130","LAUNCH_DATE":"2022-05-18","ELEMENT_SET_NO":"999","TLE_LINE2":"2 52668  53.2187 184.1387 0002522  57.8123   5.6637 15.08868077  1305","EPOCH":"2022-08-27T22:00:00.999936","MEAN_MOTION":"15.08868077","ECCENTRICITY":"0.00025220","RA_OF_ASC_NODE":"184.1387","APOAPSIS":"541.404","MEAN_MOTION_DOT":"-0.00044744","DECAY_DATE":null,"CLASSIFICATION_TYPE":"U","GP_ID":"211138294","OBJECT_TYPE":"PAYLOAD","RCS_SIZE":"LARGE","MEAN_ANOMALY":"5.6637","PERIAPSIS":"537.915","INCLINATION":"53.2187","REF_FRAME":"TEME","COUNTRY_CODE":"US","MEAN_MOTION_DDOT":"0.0000000000000","PERIOD":"95.436","OBJECT_ID":"2022-053N","ARG_OF_PERICENTER":"57.8123","OBJECT_NAME":"STARLINK-4067","TLE_LINE1":"1 52668U 22053N   22239.91667824 -.00044744  00000-0 -28084-2 0  9999","BSTAR":"-0.00280840000000","CENTER_NAME":"EARTH"},{"BSTAR":"-0.00328710000000","OBJECT_NAME":"STARLINK-3972","TLE_LINE1":"1 52669U 22053P   22239.91667824 -.00052274  00000-0 -32871-2 0  9996","CENTER_NAME":"EARTH","REF_FRAME":"TEME","INCLINATION":"53.2202","PERIAPSIS":"537.756","MEAN_ANOMALY":"104.2419","PERIOD":"95.435","ARG_OF_PERICENTER":"59.2326","OBJECT_ID":"2022-053P","COUNTRY_CODE":"US","MEAN_MOTION_DDOT":"0.0000000000000","RA_OF_ASC_NODE":"184.1371","ECCENTRICITY":"0.00027300","MEAN_MOTION":"15.08872919","RCS_SIZE":"LARGE","OBJECT_TYPE":"PAYLOAD","CLASSIFICATION_TYPE":"U","GP_ID":"211138850","DECAY_DATE":null,"APOAPSIS":"541.533","MEAN_MOTION_DOT":"-0.00052274","LAUNCH_DATE":"2022-05-18","ELEMENT_SET_NO":"999","NORAD_CAT_ID":"52669","EPHEMERIS_TYPE":"0","FILE":"3548882","REV_AT_EPOCH":"130","SITE":"AFETR","SEMIMAJOR_AXIS":"6917.780","TIME_SYSTEM":"UTC","MEAN_ELEMENT_THEORY":"SGP4","TLE_LINE2":"2 52669  53.2202 184.1371 0002730  59.2326 104.2419 15.08872919  1303","EPOCH":"2022-08-27T22:00:00.999936"}];
